[{"OBJECT_NAME":"STARLINK-4281","OBJECT_ID":"2022-076AH","EPOCH":"2026-01-22T10:44:15.487872","MEAN_MOTION":15.08823865,"ECCENTRICITY":0.00012898,"INCLINATION":53.2187,"RA_OF_ASC_NODE":291.7146,"ARG_OF_PERICENTER":95.1582,"MEAN_ANOMALY":264.9558,"EPHEMERIS_TYPE":0,"CLASSIFICATION_TYPE":"U","NORAD_CAT_ID":53017,"ELEMENT_SET_NO":999,"REV_AT_EPOCH":19601,"BSTAR":-0.00021841396,"MEAN_MOTION_DOT":-3.761e-5,"MEAN_MOTION_DDOT":0},{"OBJECT_NAME":"STARLINK-4279","OBJECT_ID":"2022-076AJ","EPOCH":"2026-01-22T17:58:49.520928","MEAN_MOTION":15.08793887,"ECCENTRICITY":6.93e-5,"INCLINATION":53.218,"RA_OF_ASC_NODE":290.6129,"ARG_OF_PERICENTER":74.1343,"MEAN_ANOMALY":285.9726,"EPHEMERIS_TYPE":0,"CLASSIFICATION_TYPE":"U","NORAD_CAT_ID":53018,"ELEMENT_SET_NO":999,"REV_AT_EPOCH":19604,"BSTAR":0.00061413851,"MEAN_MOTION_DOT":9.487e-5,"MEAN_MOTION_DDOT":0},{"OBJECT_NAME":"STARLINK-4282","OBJECT_ID":"2022-076AK","EPOCH":"2026-01-22T10:33:37.867968","MEAN_MOTION":15.08835321,"ECCENTRICITY":9.088e-5,"INCLINATION":53.2165,"RA_OF_ASC_NODE":291.7477,"ARG_OF_PERICENTER":94.5262,"MEAN_ANOMALY":265.5834,"EPHEMERIS_TYPE":0,"CLASSIFICATION_TYPE":"U","NORAD_CAT_ID":53019,"ELEMENT_SET_NO":999,"REV_AT_EPOCH":19600,"BSTAR":-4.6085116e-5,"MEAN_MOTION_DOT":-1.021e-5,"MEAN_MOTION_DDOT":0},{"OBJECT_NAME":"STARLINK-4287","OBJECT_ID":"2022-076AL","EPOCH":"2026-01-22T17:16:19.881120","MEAN_MOTION":15.08883224,"ECCENTRICITY":0.00011705,"INCLINATION":53.2174,"RA_OF_ASC_NODE":290.4884,"ARG_OF_PERICENTER":81.2094,"MEAN_ANOMALY":278.9031,"EPHEMERIS_TYPE":0,"CLASSIFICATION_TYPE":"U","NORAD_CAT_ID":53020,"ELEMENT_SET_NO":999,"REV_AT_EPOCH":19604,"BSTAR":0.00063026946,"MEAN_MOTION_DOT":9.769e-5,"MEAN_MOTION_DDOT":0},{"OBJECT_NAME":"STARLINK-4216","OBJECT_ID":"2022-076AN","EPOCH":"2026-01-22T18:35:53.132928","MEAN_MOTION":15.08857877,"ECCENTRICITY":0.00013495,"INCLINATION":53.217,"RA_OF_ASC_NODE":290.2449,"ARG_OF_PERICENTER":98.7811,"MEAN_ANOMALY":261.3334,"EPHEMERIS_TYPE":0,"CLASSIFICATION_TYPE":"U","NORAD_CAT_ID":53022,"ELEMENT_SET_NO":999,"REV_AT_EPOCH":19605,"BSTAR":0.00082232148,"MEAN_MOTION_DOT":0.0001283,"MEAN_MOTION_DDOT":0},{"OBJECT_NAME":"STARLINK-4284","OBJECT_ID":"2022-076AP","EPOCH":"2026-01-22T18:09:21.949056","MEAN_MOTION":15.08843429,"ECCENTRICITY":0.00014171,"INCLINATION":53.2192,"RA_OF_ASC_NODE":290.3123,"ARG_OF_PERICENTER":97.0418,"MEAN_ANOMALY":263.0735,"EPHEMERIS_TYPE":0,"CLASSIFICATION_TYPE":"U","NORAD_CAT_ID":53023,"ELEMENT_SET_NO":999,"REV_AT_EPOCH":19605,"BSTAR":3.6376347e-5,"MEAN_MOTION_DOT":2.91e-6,"MEAN_MOTION_DDOT":0},{"OBJECT_NAME":"STARLINK-4289","OBJECT_ID":"2022-076AQ","EPOCH":"2026-01-22T18:14:40.377984","MEAN_MOTION":15.0884362,"ECCENTRICITY":9.52e-5,"INCLINATION":53.2186,"RA_OF_ASC_NODE":290.3084,"ARG_OF_PERICENTER":92.7522,"MEAN_ANOMALY":267.3579,"EPHEMERIS_TYPE":0,"CLASSIFICATION_TYPE":"U","NORAD_CAT_ID":53024,"ELEMENT_SET_NO":999,"REV_AT_EPOCH":19605,"BSTAR":-5.910851e-5,"MEAN_MOTION_DOT":-1.228e-5,"MEAN_MOTION_DDOT":0},{"OBJECT_NAME":"STARLINK-4218","OBJECT_ID":"2022-076AR","EPOCH":"2026-01-22T18:04:04.796256","MEAN_MOTION":15.0882855,"ECCENTRICITY":9.765e-5,"INCLINATION":53.218,"RA_OF_ASC_NODE":290.3408,"ARG_OF_PERICENTER":136.6158,"MEAN_ANOMALY":223.4911,"EPHEMERIS_TYPE":0,"CLASSIFICATION_TYPE":"U","NORAD_CAT_ID":53025,"ELEMENT_SET_NO":999,"REV_AT_EPOCH":19605,"BSTAR":0.0002406134,"MEAN_MOTION_DOT":3.542e-5,"MEAN_MOTION_DDOT":0},{"OBJECT_NAME":"STARLINK-4119","OBJECT_ID":"2022-076AS","EPOCH":"2026-01-22T18:10:43.054464","MEAN_MOTION":15.08838681,"ECCENTRICITY":0.00018041,"INCLINATION":53.2183,"RA_OF_ASC_NODE":290.2158,"ARG_OF_PERICENTER":106.413,"MEAN_ANOMALY":253.706,"EPHEMERIS_TYPE":0,"CLASSIFICATION_TYPE":"U","NORAD_CAT_ID":53026,"ELEMENT_SET_NO":999,"REV_AT_EPOCH":19605,"BSTAR":-5.0772268e-5,"MEAN_MOTION_DOT":-1.096e-5,"MEAN_MOTION_DDOT":0},{"OBJECT_NAME":"STARLINK-4158","OBJECT_ID":"2022-076AT","EPOCH":"2026-01-22T11:26:34.551456","MEAN_MOTION":15.08876707,"ECCENTRICITY":0.00014046,"INCLINATION":53.2163,"RA_OF_ASC_NODE":291.5817,"ARG_OF_PERICENTER":80.1559,"MEAN_ANOMALY":279.9592,"EPHEMERIS_TYPE":0,"CLASSIFICATION_TYPE":"U","NORAD_CAT_ID":53027,"ELEMENT_SET_NO":999,"REV_AT_EPOCH":19601,"BSTAR":0.00010535195,"MEAN_MOTION_DOT":1.391e-5,"MEAN_MOTION_DDOT":0},{"OBJECT_NAME":"STARLINK-4143","OBJECT_ID":"2022-076AV","EPOCH":"2026-01-22T23:49:50.226816","MEAN_MOTION":15.08851495,"ECCENTRICITY":0.00012192,"INCLINATION":53.2175,"RA_OF_ASC_NODE":279.2637,"ARG_OF_PERICENTER":92.9118,"MEAN_ANOMALY":267.2013,"EPHEMERIS_TYPE":0,"CLASSIFICATION_TYPE":"U","NORAD_CAT_ID":53029,"ELEMENT_SET_NO":999,"REV_AT_EPOCH":19622,"BSTAR":-4.7615526e-5,"MEAN_MOTION_DOT":-1.046e-5,"MEAN_MOTION_DDOT":0},{"OBJECT_NAME":"STARLINK-4160","OBJECT_ID":"2022-076AW","EPOCH":"2026-01-22T18:25:18.908544","MEAN_MOTION":15.08853582,"ECCENTRICITY":7.471e-5,"INCLINATION":53.217,"RA_OF_ASC_NODE":290.4745,"ARG_OF_PERICENTER":60.7987,"MEAN_ANOMALY":299.308,"EPHEMERIS_TYPE":0,"CLASSIFICATION_TYPE":"U","NORAD_CAT_ID":53030,"ELEMENT_SET_NO":999,"REV_AT_EPOCH":19605,"BSTAR":0.0013633311,"MEAN_MOTION_DOT":0.00021484,"MEAN_MOTION_DDOT":0},{"OBJECT_NAME":"STARLINK-4137","OBJECT_ID":"2022-076AX","EPOCH":"2026-01-22T23:33:57.760128","MEAN_MOTION":15.08839685,"ECCENTRICITY":0.00011027,"INCLINATION":53.2158,"RA_OF_ASC_NODE":279.3121,"ARG_OF_PERICENTER":73.9564,"MEAN_ANOMALY":286.155,"EPHEMERIS_TYPE":0,"CLASSIFICATION_TYPE":"U","NORAD_CAT_ID":53031,"ELEMENT_SET_NO":999,"REV_AT_EPOCH":19622,"BSTAR":0.0008840338,"MEAN_MOTION_DOT":0.00013809,"MEAN_MOTION_DDOT":0},{"OBJECT_NAME":"STARLINK-4115","OBJECT_ID":"2022-076AY","EPOCH":"2026-01-22T11:31:56.043264","MEAN_MOTION":15.08841999,"ECCENTRICITY":0.00010773,"INCLINATION":53.2192,"RA_OF_ASC_NODE":291.5631,"ARG_OF_PERICENTER":86.9053,"MEAN_ANOMALY":273.2063,"EPHEMERIS_TYPE":0,"CLASSIFICATION_TYPE":"U","NORAD_CAT_ID":53032,"ELEMENT_SET_NO":999,"REV_AT_EPOCH":19601,"BSTAR":-0.00010244706,"MEAN_MOTION_DOT":-1.918e-5,"MEAN_MOTION_DDOT":0},{"OBJECT_NAME":"STARLINK-4167","OBJECT_ID":"2022-076AZ","EPOCH":"2026-01-22T23:39:14.314176","MEAN_MOTION":15.08845033,"ECCENTRICITY":0.00014717,"INCLINATION":53.2178,"RA_OF_ASC_NODE":279.2966,"ARG_OF_PERICENTER":82.4953,"MEAN_ANOMALY":277.6206,"EPHEMERIS_TYPE":0,"CLASSIFICATION_TYPE":"U","NORAD_CAT_ID":53033,"ELEMENT_SET_NO":999,"REV_AT_EPOCH":19622,"BSTAR":0.00029074965,"MEAN_MOTION_DOT":4.343e-5,"MEAN_MOTION_DDOT":0},{"OBJECT_NAME":"STARLINK-4151","OBJECT_ID":"2022-076BA","EPOCH":"2026-01-22T17:29:42.749664","MEAN_MOTION":15.08848582,"ECCENTRICITY":0.00014124,"INCLINATION":53.2161,"RA_OF_ASC_NODE":280.4999,"ARG_OF_PERICENTER":68.931,"MEAN_ANOMALY":291.1833,"EPHEMERIS_TYPE":0,"CLASSIFICATION_TYPE":"U","NORAD_CAT_ID":53034,"ELEMENT_SET_NO":999,"REV_AT_EPOCH":19618,"BSTAR":0.0010019017,"MEAN_MOTION_DOT":0.00015697,"MEAN_MOTION_DDOT":0}]
