STARLINK-4281           
1 53017U 22076AH  26022.44740148 -.00003761  00000+0 -21841-3 0  9994
2 53017  53.2187 291.7146 0001289  95.1582 264.9558 15.08823865196016
STARLINK-4279           
1 53018U 22076AJ  26022.74918427  .00009487  00000+0  61414-3 0  9994
2 53018  53.2180 290.6129 0000693  74.1343 285.9726 15.08793887196042
STARLINK-4282           
1 53019U 22076AK  26022.44002162 -.00001021  00000+0 -46085-4 0  9998
2 53019  53.2165 291.7477 0000908  94.5262 265.5834 15.08835321196009
STARLINK-4287           
1 53020U 22076AL  26022.71967455  .00009769  00000+0  63027-3 0  9994
2 53020  53.2174 290.4884 0001170  81.2094 278.9031 15.08883224196043
STARLINK-4216           
1 53022U 22076AN  26022.77492052  .00012830  00000+0  82232-3 0  9990
2 53022  53.2170 290.2449 0001349  98.7811 261.3334 15.08857877196052
STARLINK-4284           
1 53023U 22076AP  26022.75650404  .00000291  00000+0  36376-4 0  9993
2 53023  53.2192 290.3123 0001417  97.0418 263.0735 15.08843429196050
STARLINK-4289           
1 53024U 22076AQ  26022.76018956 -.00001228  00000+0 -59109-4 0  9997
2 53024  53.2186 290.3084 0000952  92.7522 267.3579 15.08843620196057
STARLINK-4218           
1 53025U 22076AR  26022.75283329  .00003542  00000+0  24061-3 0  9992
2 53025  53.2180 290.3408 0000976 136.6158 223.4911 15.08828550196059
STARLINK-4119           
1 53026U 22076AS  26022.75744276 -.00001096  00000+0 -50772-4 0  9999
2 53026  53.2183 290.2158 0001804 106.4130 253.7060 15.08838681196057
STARLINK-4158           
1 53027U 22076AT  26022.47678879  .00001391  00000+0  10535-3 0  9992
2 53027  53.2163 291.5817 0001404  80.1559 279.9592 15.08876707196018
STARLINK-4143           
1 53029U 22076AV  26022.99294244 -.00001046  00000+0 -47616-4 0  9991
2 53029  53.2175 279.2637 0001219  92.9118 267.2013 15.08851495196220
STARLINK-4160           
1 53030U 22076AW  26022.76757996  .00021484  00000+0  13633-2 0  9992
2 53030  53.2170 290.4745 0000747  60.7987 299.3080 15.08853582196054
STARLINK-4137           
1 53031U 22076AX  26022.98191852  .00013809  00000+0  88403-3 0  9990
2 53031  53.2158 279.3121 0001102  73.9564 286.1550 15.08839685196221
STARLINK-4115           
1 53032U 22076AY  26022.48050976 -.00001918  00000+0 -10245-3 0  9996
2 53032  53.2192 291.5631 0001077  86.9053 273.2063 15.08841999196014
STARLINK-4167           
1 53033U 22076AZ  26022.98558234  .00004343  00000+0  29075-3 0  9996
2 53033  53.2178 279.2966 0001471  82.4953 277.6206 15.08845033196224
STARLINK-4151           
1 53034U 22076BA  26022.72896701  .00015697  00000+0  10019-2 0  9994
2 53034  53.2161 280.4999 0001412  68.9310 291.1833 15.08848582196182
